NORAD_CAT_ID,OBJECT_NAME,OBJECT_TYPE,EPOCH,MEAN_MOTION,ECCENTRICITY,INCLINATION,RA_OF_ASC_NODE,ARG_OF_PERICENTER,MEAN_ANOMALY,BSTAR,MEAN_MOTION_DOT,MEAN_MOTION_DDOT,TLE_LINE0,TLE_LINE1,TLE_LINE2,SEMIMAJOR_AXIS,PERIOD,APOGEE,PERIGEE,DECAYED
51993.0,STARLINK-3648,PAYLOAD,2022-03-24 20:00:01,15.73176007,0.0001068,53.2176,64.1578,71.1502,210.3781,0.00038122,0.00053165,0.0,0 STARLINK-3648,1 51993U 22025AP  22083.83334491  .00053165  00000-0  38122-3 0  9997,2 51993  53.2176  64.1578 0001068  71.1502 210.3781 15.73176007  3692,6727.964,91.535,350.547,349.11,0.0
51993.0,STARLINK-3648,PAYLOAD,2022-03-24 22:00:00,15.73193805,0.0001167,53.2179,63.7455,74.2897,319.4643,0.00016005,0.00021894,0.0,0 STARLINK-3648,1 51993U 22025AP  22083.91667824  .00021894  00000-0  16005-3 0  9995,2 51993  53.2179  63.7455 0001167  74.2897 319.4643 15.73193805  2631,6727.913000000001,91.534,350.56300000000016,348.99300000000005,0.0
51993.0,STARLINK-3648,PAYLOAD,2022-03-25 04:00:00,15.73209687,0.0001318,53.2179,62.51,69.851,300.6021,-0.00040128,-0.00056582,0.0,0 STARLINK-3648,1 51993U 22025AP  22084.16667824 -.00056582  00000-0 -40128-3 0  9990,2 51993  53.2179  62.5100 0001318  69.8510 300.6021 15.73209687  3746,6727.868,91.533,350.619,348.846,0.0
51993.0,STARLINK-3648,PAYLOAD,2022-03-25 14:00:01,15.73212298,0.0001252999999999,53.218,60.448,68.5627,143.0053,-0.00059354,-0.00083143,0.0,0 STARLINK-3648,1 51993U 22025AP  22084.58334491 -.00083143  00000-0 -59354-3 0  9991,2 51993  53.2180  60.4480 0001253  68.5627 143.0053 15.73212298  2744,6727.86,91.532,350.5680000000001,348.88199999999995,0.0
51993.0,STARLINK-3648,PAYLOAD,2022-03-25 20:00:01,15.73131059,0.0001129,53.2181,59.2094,76.19800000000002,112.0647,0.00070728,0.00099529,0.0,0 STARLINK-3648,1 51993U 22025AP  22084.83334491  .00099529  00000-0  70728-3 0  9990,2 51993  53.2181  59.2094 0001129  76.1980 112.0647 15.73131059  3843,6728.092,91.537,350.716,349.19699999999995,0.0
51993.0,STARLINK-3648,PAYLOAD,2022-03-25 22:00:01,15.7315681,0.0001163,53.2184,58.7971,76.7635,223.7758,0.00056065,0.00078656,0.0,0 STARLINK-3648,1 51993U 22025AP  22084.91668981  .00078656  00000-0  56065-3 0  9999,2 51993  53.2184  58.7971 0001163  76.7635 223.7758 15.73156810  2793,6728.018,91.536,350.666,349.101,0.0
51993.0,STARLINK-3648,PAYLOAD,2022-03-26 04:00:00,15.73208921,0.0001207,53.2181,57.5619,67.9617,209.1842,3.7235e-05,4.611e-05,0.0,0 STARLINK-3648,1 51993U 22025AP  22085.16667824  .00004611  00000-0  37235-4 0  9991,2 51993  53.2181  57.5619 0001207  67.9617 209.1842 15.73208921  3904,6727.87,91.533,350.547,348.923,0.0
51993.0,STARLINK-3648,PAYLOAD,2022-03-26 14:00:01,15.73197492,0.0001,53.2178,55.4994,67.3467,50.978,5.5907e-05,7.232e-05,0.0,0 STARLINK-3648,1 51993U 22025AP  22085.58334491  .00007232  00000-0  55907-4 0  9996,2 51993  53.2178  55.4994 0001000  67.3467  50.9780 15.73197492  2903,6727.901999999999,91.533,350.44,349.095,0.0
51993.0,STARLINK-3648,PAYLOAD,2022-03-26 22:00:00,15.73241091,0.0001027,53.218,53.849,82.3481,124.8919,-9.26e-05,-0.00013617,0.0,0 STARLINK-3648,1 51993U 22025AP  22085.91667824 -.00013617  00000-0 -92600-4 0  9999,2 51993  53.2180  53.8490 0001027  82.3481 124.8919 15.73241091  2956,6727.778,91.531,350.334,348.952,0.0
51993.0,STARLINK-3648,PAYLOAD,2022-03-27 04:00:00,15.73217396,0.0001151,53.2179,52.6136,69.8472,114.1215,-0.00033768,-0.00047777,0.0,0 STARLINK-3648,1 51993U 22025AP  22086.16667824 -.00047777  00000-0 -33768-3 0  9990,2 51993  53.2179  52.6136 0001151  69.8472 114.1215 15.73217396  4051,6727.846,91.532,350.485,348.936,0.0
51993.0,STARLINK-3648,PAYLOAD,2022-03-27 12:00:00,15.7321885,0.0001044,53.2178,50.9637,69.7084,203.2113,-0.00021084,-0.00030127,0.0,0 STARLINK-3648,1 51993U 22025AP  22086.50001157 -.00030127  00000-0 -21084-3 0  9998,2 51993  53.2178  50.9637 0001044  69.7084 203.2113 15.73218850  4116,6727.840999999999,91.532,350.409,349.004,0.0
51993.0,STARLINK-3648,PAYLOAD,2022-03-27 14:00:01,15.73195069,9.82e-05,53.2181,50.5507,75.039,310.1235,0.00012404,0.00016819,0.0,0 STARLINK-3648,1 51993U 22025AP  22086.58334491  .00016819  00000-0  12404-3 0  9992,2 51993  53.2181  50.5507 0000982  75.0390 310.1235 15.73195069  3064,6727.909000000002,91.533,350.435,349.11400000000015,0.0
51993.0,STARLINK-3648,PAYLOAD,2022-03-27 20:00:01,15.73182131,9.55e-05,53.2182,49.3124,81.6926,280.1619,0.00073326,0.00103484,0.0,0 STARLINK-3648,1 51993U 22025AP  22086.83334491  .00103484  00000-0  73326-3 0  9995,2 51993  53.2182  49.3124 0000955  81.6926 280.1619 15.73182131  4164,6727.946,91.534,350.454,349.1690000000001,0.0
51993.0,STARLINK-3648,PAYLOAD,2022-03-27 22:00:01,15.73218348,0.0001,53.2185,48.9003,83.0791,31.0648,0.00042139,0.00058981,0.0,0 STARLINK-3648,1 51993U 22025AP  22086.91668981  .00058981  00000-0  42139-3 0  9997,2 51993  53.2185  48.9003 0001000  83.0791  31.0648 15.73218348  3115,6727.843000000003,91.532,350.381,349.035,0.0
51993.0,STARLINK-3648,PAYLOAD,2022-03-28 04:00:00,15.73294097,0.0001018,53.2184,47.6649,69.9081,20.9098,-0.00066377,-0.00093121,0.0,0 STARLINK-3648,1 51993U 22025AP  22087.16667824 -.00093121  00000-0 -66377-3 0  9997,2 51993  53.2184  47.6649 0001018  69.9081  20.9098 15.73294097  4213,6727.627,91.528,350.177,348.807,0.0
51993.0,STARLINK-3648,PAYLOAD,2022-03-28 12:00:00,15.73233058,0.0001006,53.218,46.0147,70.2185,109.6114,-0.00025178,-0.00035854,0.0,0 STARLINK-3648,1 51993U 22025AP  22087.50001157 -.00035854  00000-0 -25178-3 0  9999,2 51993  53.2180  46.0147 0001006  70.2185 109.6114 15.73233058  4261,6727.801,91.531,350.343,348.98900000000015,0.0
51993.0,STARLINK-3648,PAYLOAD,2022-03-28 14:00:01,15.73203215,0.0001043,53.2181,45.6016,77.6681,214.4752,0.00017751,0.00024368,0.0,0 STARLINK-3648,1 51993U 22025AP  22087.58335648  .00024368  00000-0  17751-3 0  9996,2 51993  53.2181  45.6016 0001043  77.6681 214.4752 15.73203215  3225,6727.886,91.533,350.45300000000015,349.0490000000001,0.0
51993.0,STARLINK-3648,PAYLOAD,2022-03-28 22:00:00,15.73245711,0.0001162,53.2183,43.9517,88.1786,292.8271,-0.00053188,-0.0007475,0.0,0 STARLINK-3648,1 51993U 22025AP  22087.91667824 -.00074750  00000-0 -53188-3 0  9993,2 51993  53.2183  43.9517 0001162  88.1786 292.8271 15.73245711  3277,6727.765,91.531,350.412,348.848,0.0
51993.0,STARLINK-3648,PAYLOAD,2022-03-29 14:00:01,15.73166535,0.0001163,53.2187,40.6532,86.2327,112.6012,-9.5606e-05,-0.00013995,0.0,0 STARLINK-3648,1 51993U 22025AP  22088.58334491 -.00013995  00000-0 -95606-4 0  9994,2 51993  53.2187  40.6532 0001163  86.2327 112.6012 15.73166535  3383,6727.991,91.535,350.63800000000015,349.0730000000001,0.0
51993.0,STARLINK-3648,PAYLOAD,2022-03-29 20:00:01,15.73152369,0.0001122,53.2189,39.4153,93.1082,82.3897,0.00016585,0.00022671,0.0,0 STARLINK-3648,1 51993U 22025AP  22088.83334491  .00022671  00000-0  16585-3 0  9999,2 51993  53.2189  39.4153 0001122  93.1082  82.3897 15.73152369  4475,6728.031,91.536,350.651,349.141,0.0
51993.0,STARLINK-3648,PAYLOAD,2022-03-29 22:00:00,15.73151122,0.0001119,53.2191,39.0034,91.9151,195.8034,0.00023403,0.00032282,0.0,0 STARLINK-3648,1 51993U 22025AP  22088.91667824  .00032282  00000-0  23403-3 0  9993,2 51993  53.2191  39.0034 0001119  91.9151 195.8034 15.73151122  3435,6728.035,91.536,350.652,349.147,0.0
51993.0,STARLINK-3648,PAYLOAD,2022-03-30 12:00:00,15.73253627,0.0001147,53.2187,36.1178,85.9236,267.373,-0.00054367,-0.00076403,0.0,0 STARLINK-3648,1 51993U 22025AP  22089.50001157 -.00076403  00000-0 -54367-3 0  9998,2 51993  53.2187  36.1178 0001147  85.9236 267.3730 15.73253627  4583,6727.7419999999975,91.53,350.379,348.836,0.0
51993.0,STARLINK-3648,PAYLOAD,2022-03-30 14:00:01,15.73210167,0.0001135,53.2189,35.7048,90.2035,15.4073,-6.9755e-05,-0.00010401,0.0,0 STARLINK-3648,1 51993U 22025AP  22089.58335648 -.00010401  00000-0 -69755-4 0  9995,2 51993  53.2189  35.7048 0001135  90.2035  15.4073 15.73210167  3548,6727.866,91.533,350.495,348.968,0.0
51993.0,STARLINK-3648,PAYLOAD,2022-03-30 20:00:01,15.73207762,0.0001307,53.219,34.4673,97.9104,344.3313,0.00041519,0.00058072,0.0,0 STARLINK-3648,1 51993U 22025AP  22089.83334491  .00058072  00000-0  41519-3 0  9999,2 51993  53.2190  34.4673 0001307  97.9104 344.3313 15.73207762  4631,6727.873000000001,91.533,350.617,348.8590000000001,0.0
51993.0,STARLINK-3648,PAYLOAD,2022-03-30 22:00:00,15.73253823,0.0001262,53.2191,34.0555,98.7907,95.677,-0.00021592,-0.00030881,0.0,0 STARLINK-3648,1 51993U 22025AP  22089.91667824 -.00030881  00000-0 -21592-3 0  9996,2 51993  53.2191  34.0555 0001262  98.7907  95.6770 15.73253823  3593,6727.7419999999975,91.53,350.456,348.7580000000001,0.0
51993.0,STARLINK-3648,PAYLOAD,2022-03-31 04:00:00,15.73236161,0.0001207,53.2189,32.82,85.99700000000001,85.2038,-0.00061392,-0.00086035,0.0,0 STARLINK-3648,1 51993U 22025AP  22090.16667824 -.00086035  00000-0 -61392-3 0  9999,2 51993  53.2189  32.8200 0001207  85.9970  85.2038 15.73236161  4689,6727.792,91.531,350.469,348.845,0.0
51993.0,STARLINK-3648,PAYLOAD,2022-03-31 12:00:00,15.73217413,0.0001099,53.219,31.1695,94.6333,165.5095,-0.00052788,-0.00074108,0.0,0 STARLINK-3648,1 51993U 22025AP  22090.50001157 -.00074108  00000-0 -52788-3 0  9995,2 51993  53.2190  31.1695 0001099  94.6333 165.5095 15.73217413  4741,6727.846,91.532,350.45,348.971,0.0
51993.0,STARLINK-3648,PAYLOAD,2022-03-31 14:00:01,15.73181424,0.0001089,53.2192,30.7567,100.6871,271.695,-3.7946e-05,-5.937e-05,0.0,0 STARLINK-3648,1 51993U 22025AP  22090.58334491 -.00005937  00000-0 -37946-4 0  9997,2 51993  53.2192  30.7567 0001089 100.6871 271.6950 15.73181424  3694,6727.948,91.534,350.546,349.08,0.0
51993.0,STARLINK-3648,PAYLOAD,2022-03-31 20:00:01,15.73164452,0.00011,53.2195,29.5191,103.4129,245.6451,0.0007237,0.00102031,0.0,0 STARLINK-3648,1 51993U 22025AP  22090.83334491  .00102031  00000-0  72370-3 0  9995,2 51993  53.2195  29.5191 0001100 103.4129 245.6451 15.73164452  4798,6727.996999999999,91.535,350.602,349.121,0.0
